{
"type": "FeatureCollection",
"name": "points",
"crs": { "type": "name", "properties": { "name": "urn:ogc:def:crs:OGC:1.3:CRS84" } },
"features": [
{ "type": "Feature", "properties": { "region": "Maritime", "src": "TdE", "type": "Forage", "name": "Forage", "valid_coord": true, "project_status": null, "maintenance_plan": "<NA>", "handover_date": null, "canton": "Agoè-Nyivé", "FRI_canton": 0.49309713723152732, "control_score": null, "control_class": "Non évaluable (TdE)" }, "geometry": { "type": "Point", "coordinates": [ 1.200791666666667, 6.20630833333333 ] } },
{ "type": "Feature", "properties": { "region": "Maritime", "src": "TdE", "type": "Forage", "name": "Forage", "valid_coord": true, "project_status": null, "maintenance_plan": "<NA>", "handover_date": null, "canton": "Agoè-Nyivé", "FRI_canton": 0.49309713723152732, "control_score": null, "control_class": "Non évaluable (TdE)" }, "geometry": { "type": "Point", "coordinates": [ 1.201506666666666, 6.20825 ] } },
{ "type": "Feature", "properties": { "region": "Maritime", "src": "TdE", "type": "Forage", "name": "Forage", "valid_coord": true, "project_status": null, "maintenance_plan": "<NA>", "handover_date": null, "canton": "Agoè-Nyivé", "FRI_canton": 0.49309713723152732, "control_score": null, "control_class": "Non évaluable (TdE)" }, "geometry": { "type": "Point", "coordinates": [ 1.20243, 6.208016666666667 ] } },
{ "type": "Feature", "properties": { "region": "Maritime", "src": "TdE", "type": "Forage", "name": "Forage", "valid_coord": true, "project_status": null, "maintenance_plan": "<NA>", "handover_date": null, "canton": "Agoè-Nyivé", "FRI_canton": 0.49309713723152732, "control_score": null, "control_class": "Non évaluable (TdE)" }, "geometry": { "type": "Point", "coordinates": [ 1.20366648982033, 6.207501047411496 ] } },
{ "type": "Feature", "properties": { "region": "Maritime", "src": "TdE", "type": "Forage", "name": "Forage", "valid_coord": true, "project_status": null, "maintenance_plan": "<NA>", "handover_date": null, "canton": "Agoè-Nyivé", "FRI_canton": 0.49309713723152732, "control_score": null, "control_class": "Non évaluable (TdE)" }, "geometry": { "type": "Point", "coordinates": [ 1.201426666666668, 6.208295 ] } },
{ "type": "Feature", "properties": { "region": "Maritime", "src": "TdE", "type": "Forage", "name": "Forage", "valid_coord": true, "project_status": null, "maintenance_plan": "<NA>", "handover_date": null, "canton": "Agoè-Nyivé", "FRI_canton": 0.49309713723152732, "control_score": null, "control_class": "Non évaluable (TdE)" }, "geometry": { "type": "Point", "coordinates": [ 1.205403333333333, 6.20774 ] } },
{ "type": "Feature", "properties": { "region": "Maritime", "src": "TdE", "type": "Forage", "name": "Forage", "valid_coord": true, "project_status": null, "maintenance_plan": "<NA>", "handover_date": null, "canton": "Agoè-Nyivé", "FRI_canton": 0.49309713723152732, "control_score": null, "control_class": "Non évaluable (TdE)" }, "geometry": { "type": "Point", "coordinates": [ 1.201645, 6.207003333333335 ] } },
{ "type": "Feature", "properties": { "region": "Maritime", "src": "TdE", "type": "Forage", "name": "Forage", "valid_coord": true, "project_status": null, "maintenance_plan": "<NA>", "handover_date": null, "canton": "Agoè-Nyivé", "FRI_canton": 0.49309713723152732, "control_score": null, "control_class": "Non évaluable (TdE)" }, "geometry": { "type": "Point", "coordinates": [ 1.20204, 6.207326666666666 ] } },
{ "type": "Feature", "properties": { "region": "Maritime", "src": "TdE", "type": "Forage", "name": "Forage", "valid_coord": true, "project_status": null, "maintenance_plan": "<NA>", "handover_date": null, "canton": "Agoè-Nyivé", "FRI_canton": 0.49309713723152732, "control_score": null, "control_class": "Non évaluable (TdE)" }, "geometry": { "type": "Point", "coordinates": [ 1.201225, 6.20672 ] } },
{ "type": "Feature", "properties": { "region": "Maritime", "src": "TdE", "type": "Forage", "name": "Forage", "valid_coord": true, "project_status": null, "maintenance_plan": "<NA>", "handover_date": null, "canton": "Agoè-Nyivé", "FRI_canton": 0.49309713723152732, "control_score": null, "control_class": "Non évaluable (TdE)" }, "geometry": { "type": "Point", "coordinates": [ 1.18421, 6.21621 ] } },
{ "type": "Feature", "properties": { "region": "Maritime", "src": "TdE", "type": "Forage", "name": "Forage", "valid_coord": true, "project_status": null, "maintenance_plan": "<NA>", "handover_date": null, "canton": "Agoè-Nyivé", "FRI_canton": 0.49309713723152732, "control_score": null, "control_class": "Non évaluable (TdE)" }, "geometry": { "type": "Point", "coordinates": [ 1.189786666666667, 6.210908333333333 ] } },
{ "type": "Feature", "properties": { "region": "Maritime", "src": "TdE", "type": "Forage", "name": "Forage", "valid_coord": true, "project_status": null, "maintenance_plan": "<NA>", "handover_date": null, "canton": "Agoè-Nyivé", "FRI_canton": 0.49309713723152732, "control_score": null, "control_class": "Non évaluable (TdE)" }, "geometry": { "type": "Point", "coordinates": [ 1.218611666666667, 6.240578333333334 ] } },
{ "type": "Feature", "properties": { "region": "Maritime", "src": "TdE", "type": "Forage", "name": "Forage", "valid_coord": true, "project_status": null, "maintenance_plan": "<NA>", "handover_date": null, "canton": "Agoè-Nyivé", "FRI_canton": 0.49309713723152732, "control_score": null, "control_class": "Non évaluable (TdE)" }, "geometry": { "type": "Point", "coordinates": [ 1.182713333333333, 6.21202 ] } },
{ "type": "Feature", "properties": { "region": "Maritime", "src": "TdE", "type": "Forage", "name": "Forage", "valid_coord": true, "project_status": null, "maintenance_plan": "<NA>", "handover_date": null, "canton": "Agoè-Nyivé", "FRI_canton": 0.49309713723152732, "control_score": null, "control_class": "Non évaluable (TdE)" }, "geometry": { "type": "Point", "coordinates": [ 1.18268, 6.211938333333333 ] } },
{ "type": "Feature", "properties": { "region": "Maritime", "src": "TdE", "type": "Forage", "name": "Forage", "valid_coord": true, "project_status": null, "maintenance_plan": "<NA>", "handover_date": null, "canton": "Agoè-Nyivé", "FRI_canton": 0.49309713723152732, "control_score": null, "control_class": "Non évaluable (TdE)" }, "geometry": { "type": "Point", "coordinates": [ 1.17653, 6.2215 ] } },
{ "type": "Feature", "properties": { "region": "Maritime", "src": "TdE", "type": "Forage", "name": "Forage", "valid_coord": true, "project_status": null, "maintenance_plan": "<NA>", "handover_date": null, "canton": "Agoè-Nyivé", "FRI_canton": 0.49309713723152732, "control_score": null, "control_class": "Non évaluable (TdE)" }, "geometry": { "type": "Point", "coordinates": [ 1.2103, 6.243005 ] } },
{ "type": "Feature", "properties": { "region": "Maritime", "src": "TdE", "type": "Forage", "name": "Forage", "valid_coord": true, "project_status": null, "maintenance_plan": "<NA>", "handover_date": null, "canton": "Agoè-Nyivé", "FRI_canton": 0.49309713723152732, "control_score": null, "control_class": "Non évaluable (TdE)" }, "geometry": { "type": "Point", "coordinates": [ 1.223111666666666, 6.22818 ] } },
{ "type": "Feature", "properties": { "region": "Maritime", "src": "TdE", "type": "Forage", "name": "Forage", "valid_coord": true, "project_status": null, "maintenance_plan": "<NA>", "handover_date": null, "canton": "Agoè-Nyivé", "FRI_canton": 0.49309713723152732, "control_score": null, "control_class": "Non évaluable (TdE)" }, "geometry": { "type": "Point", "coordinates": [ 1.200465, 6.206983333333333 ] } },
{ "type": "Feature", "properties": { "region": "Maritime", "src": "TdE", "type": "Forage", "name": "Forage", "valid_coord": true, "project_status": null, "maintenance_plan": "<NA>", "handover_date": null, "canton": "Agoè-Nyivé", "FRI_canton": 0.49309713723152732, "control_score": null, "control_class": "Non évaluable (TdE)" }, "geometry": { "type": "Point", "coordinates": [ 1.200398333333334, 6.207581666666663 ] } },
{ "type": "Feature", "properties": { "region": "Maritime", "src": "TdE", "type": "Forage", "name": "Forage", "valid_coord": true, "project_status": null, "maintenance_plan": "<NA>", "handover_date": null, "canton": "Légbassito", "FRI_canton": 0.34328626002598667, "control_score": null, "control_class": "Non évaluable (TdE)" }, "geometry": { "type": "Point", "coordinates": [ 1.156118333333334, 6.2731 ] } },
{ "type": "Feature", "properties": { "region": "Maritime", "src": "TdE", "type": "Forage", "name": "Forage", "valid_coord": true, "project_status": null, "maintenance_plan": "<NA>", "handover_date": null, "canton": "Légbassito", "FRI_canton": 0.34328626002598667, "control_score": null, "control_class": "Non évaluable (TdE)" }, "geometry": { "type": "Point", "coordinates": [ 1.162078333333333, 6.29845 ] } },
{ "type": "Feature", "properties": { "region": "Maritime", "src": "TdE", "type": "Forage", "name": "Forage", "valid_coord": true, "project_status": null, "maintenance_plan": "<NA>", "handover_date": null, "canton": "Légbassito", "FRI_canton": 0.34328626002598667, "control_score": null, "control_class": "Non évaluable (TdE)" }, "geometry": { "type": "Point", "coordinates": [ 1.164831666666667, 6.302976666666666 ] } },
{ "type": "Feature", "properties": { "region": "Maritime", "src": "TdE", "type": "Forage", "name": "Forage", "valid_coord": true, "project_status": null, "maintenance_plan": "<NA>", "handover_date": null, "canton": "Vakpossito", "FRI_canton": 0.24856343264341363, "control_score": null, "control_class": "Non évaluable (TdE)" }, "geometry": { "type": "Point", "coordinates": [ 1.177026666666667, 6.21339 ] } },
{ "type": "Feature", "properties": { "region": "Maritime", "src": "TdE", "type": "Forage", "name": "Forage", "valid_coord": true, "project_status": null, "maintenance_plan": "<NA>", "handover_date": null, "canton": "Vakpossito", "FRI_canton": 0.24856343264341363, "control_score": null, "control_class": "Non évaluable (TdE)" }, "geometry": { "type": "Point", "coordinates": [ 1.173691666666667, 6.218505 ] } },
{ "type": "Feature", "properties": { "region": "Maritime", "src": "TdE", "type": "Forage", "name": "Forage", "valid_coord": true, "project_status": null, "maintenance_plan": "<NA>", "handover_date": null, "canton": "Vakpossito", "FRI_canton": 0.24856343264341363, "control_score": null, "control_class": "Non évaluable (TdE)" }, "geometry": { "type": "Point", "coordinates": [ 1.173685, 6.218591666666666 ] } },
{ "type": "Feature", "properties": { "region": "Maritime", "src": "TdE", "type": "Forage", "name": "Forage", "valid_coord": true, "project_status": null, "maintenance_plan": "<NA>", "handover_date": null, "canton": "Vakpossito", "FRI_canton": 0.24856343264341363, "control_score": null, "control_class": "Non évaluable (TdE)" }, "geometry": { "type": "Point", "coordinates": [ 1.178995, 6.217398333333332 ] } },
{ "type": "Feature", "properties": { "region": "Maritime", "src": "TdE", "type": "Nsp", "name": "Nsp", "valid_coord": true, "project_status": null, "maintenance_plan": "<NA>", "handover_date": null, "canton": "Vakpossito", "FRI_canton": 0.24856343264341363, "control_score": null, "control_class": "Non évaluable (TdE)" }, "geometry": { "type": "Point", "coordinates": [ 1.160828333333335, 6.218258333333332 ] } },
{ "type": "Feature", "properties": { "region": "Maritime", "src": "TdE", "type": "Forage", "name": "Forage", "valid_coord": true, "project_status": null, "maintenance_plan": "<NA>", "handover_date": null, "canton": "Togblekope", "FRI_canton": 0.41444260352557744, "control_score": null, "control_class": "Non évaluable (TdE)" }, "geometry": { "type": "Point", "coordinates": [ 1.209351666666666, 6.262661666666664 ] } },
{ "type": "Feature", "properties": { "region": "Maritime", "src": "TdE", "type": "Forage", "name": "Forage", "valid_coord": true, "project_status": null, "maintenance_plan": "<NA>", "handover_date": null, "canton": "Togblekope", "FRI_canton": 0.41444260352557744, "control_score": null, "control_class": "Non évaluable (TdE)" }, "geometry": { "type": "Point", "coordinates": [ 1.220286666666667, 6.263633333333332 ] } },
{ "type": "Feature", "properties": { "region": "Maritime", "src": "TdE", "type": "Château de Dikame", "name": "Château de Dikame", "valid_coord": true, "project_status": null, "maintenance_plan": "<NA>", "handover_date": null, "canton": "Togblekope", "FRI_canton": 0.41444260352557744, "control_score": null, "control_class": "Non évaluable (TdE)" }, "geometry": { "type": "Point", "coordinates": [ 1.23272, 6.244791666666665 ] } },
{ "type": "Feature", "properties": { "region": "Maritime", "src": "TdE", "type": "Forage", "name": "Forage", "valid_coord": true, "project_status": null, "maintenance_plan": "<NA>", "handover_date": null, "canton": "Togblekope", "FRI_canton": 0.41444260352557744, "control_score": null, "control_class": "Non évaluable (TdE)" }, "geometry": { "type": "Point", "coordinates": [ 1.211811666666667, 6.27798 ] } },
{ "type": "Feature", "properties": { "region": "Maritime", "src": "TdE", "type": "Château de Fidokpui", "name": "Château de Fidokpui", "valid_coord": true, "project_status": null, "maintenance_plan": "<NA>", "handover_date": null, "canton": "Togblekope", "FRI_canton": 0.41444260352557744, "control_score": null, "control_class": "Non évaluable (TdE)" }, "geometry": { "type": "Point", "coordinates": [ 1.22365, 6.261855 ] } },
{ "type": "Feature", "properties": { "region": "Maritime", "src": "TdE", "type": "Forage", "name": "Forage", "valid_coord": true, "project_status": null, "maintenance_plan": "<NA>", "handover_date": null, "canton": "Togblekope", "FRI_canton": 0.41444260352557744, "control_score": null, "control_class": "Non évaluable (TdE)" }, "geometry": { "type": "Point", "coordinates": [ 1.182025, 6.292586666666667 ] } },
{ "type": "Feature", "properties": { "region": "Maritime", "src": "TdE", "type": "Forage B'16Bis", "name": "Forage B'16Bis", "valid_coord": true, "project_status": null, "maintenance_plan": "<NA>", "handover_date": null, "canton": "Adétikopé", "FRI_canton": 0.22269216254564025, "control_score": null, "control_class": "Non évaluable (TdE)" }, "geometry": { "type": "Point", "coordinates": [ 1.207198333333336, 6.31472 ] } },
{ "type": "Feature", "properties": { "region": "Maritime", "src": "TdE", "type": "Forage", "name": "Forage", "valid_coord": true, "project_status": null, "maintenance_plan": "<NA>", "handover_date": null, "canton": "Adétikopé", "FRI_canton": 0.22269216254564025, "control_score": null, "control_class": "Non évaluable (TdE)" }, "geometry": { "type": "Point", "coordinates": [ 1.2135, 6.344771666666665 ] } },
{ "type": "Feature", "properties": { "region": "Maritime", "src": "TdE", "type": "Forage", "name": "Forage", "valid_coord": true, "project_status": null, "maintenance_plan": "<NA>", "handover_date": null, "canton": "Adétikopé", "FRI_canton": 0.22269216254564025, "control_score": null, "control_class": "Non évaluable (TdE)" }, "geometry": { "type": "Point", "coordinates": [ 1.21092, 6.323951666666668 ] } },
{ "type": "Feature", "properties": { "region": "Maritime", "src": "TdE", "type": "Forage C'10", "name": "Forage C'10", "valid_coord": true, "project_status": null, "maintenance_plan": "<NA>", "handover_date": null, "canton": "Adétikopé", "FRI_canton": 0.22269216254564025, "control_score": null, "control_class": "Non évaluable (TdE)" }, "geometry": { "type": "Point", "coordinates": [ 1.219308333333334, 6.322853333333334 ] } },
{ "type": "Feature", "properties": { "region": "Maritime", "src": "TdE", "type": "Forage", "name": "Forage", "valid_coord": true, "project_status": null, "maintenance_plan": "<NA>", "handover_date": null, "canton": "Adétikopé", "FRI_canton": 0.22269216254564025, "control_score": null, "control_class": "Non évaluable (TdE)" }, "geometry": { "type": "Point", "coordinates": [ 1.19735, 6.316366666666667 ] } },
{ "type": "Feature", "properties": { "region": "Maritime", "src": "TdE", "type": "Forage Massekope", "name": "Forage Massekope", "valid_coord": true, "project_status": null, "maintenance_plan": "<NA>", "handover_date": null, "canton": "Vogan", "FRI_canton": 0.24144304608030634, "control_score": null, "control_class": "Non évaluable (TdE)" }, "geometry": { "type": "Point", "coordinates": [ 1.5386, 6.36603 ] } },
{ "type": "Feature", "properties": { "region": "Maritime", "src": "TdE", "type": "Forage", "name": "Forage", "valid_coord": true, "project_status": null, "maintenance_plan": "<NA>", "handover_date": null, "canton": "Vogan", "FRI_canton": 0.24144304608030634, "control_score": null, "control_class": "Non évaluable (TdE)" }, "geometry": { "type": "Point", "coordinates": [ 1.510528333333334, 6.285457635839356 ] } },
{ "type": "Feature", "properties": { "region": "Maritime", "src": "TdE", "type": "Forage", "name": "Forage", "valid_coord": true, "project_status": null, "maintenance_plan": "<NA>", "handover_date": null, "canton": "Vogan", "FRI_canton": 0.24144304608030634, "control_score": null, "control_class": "Non évaluable (TdE)" }, "geometry": { "type": "Point", "coordinates": [ 1.456863333333333, 6.333263333333334 ] } },
{ "type": "Feature", "properties": { "region": "Maritime", "src": "TdE", "type": "Forage de Kpessou", "name": "Forage de Kpessou", "valid_coord": true, "project_status": null, "maintenance_plan": "<NA>", "handover_date": null, "canton": "Kpétsou", "FRI_canton": 0.087262396040915458, "control_score": null, "control_class": "Non évaluable (TdE)" }, "geometry": { "type": "Point", "coordinates": [ 1.583853333333333, 6.523803333333333 ] } },
{ "type": "Feature", "properties": { "region": "Maritime", "src": "TdE", "type": "Nsp", "name": "Nsp", "valid_coord": true, "project_status": null, "maintenance_plan": "<NA>", "handover_date": null, "canton": "Vo-Koutimé", "FRI_canton": 0.075525165830131052, "control_score": null, "control_class": "Non évaluable (TdE)" }, "geometry": { "type": "Point", "coordinates": [ 1.585586666666667, 6.334843333333332 ] } },
{ "type": "Feature", "properties": { "region": "Maritime", "src": "TdE", "type": "Nsp", "name": "Nsp", "valid_coord": true, "project_status": null, "maintenance_plan": "<NA>", "handover_date": null, "canton": "Vo-Koutimé", "FRI_canton": 0.075525165830131052, "control_score": null, "control_class": "Non évaluable (TdE)" }, "geometry": { "type": "Point", "coordinates": [ 1.605856666666667, 6.378925 ] } },
{ "type": "Feature", "properties": { "region": "Maritime", "src": "TdE", "type": "Nsp", "name": "Nsp", "valid_coord": true, "project_status": null, "maintenance_plan": "<NA>", "handover_date": null, "canton": "Vo-Koutimé", "FRI_canton": 0.075525165830131052, "control_score": null, "control_class": "Non évaluable (TdE)" }, "geometry": { "type": "Point", "coordinates": [ 1.55241, 6.35256 ] } },
{ "type": "Feature", "properties": { "region": "Maritime", "src": "TdE", "type": "Forage", "name": "Forage", "valid_coord": true, "project_status": null, "maintenance_plan": "<NA>", "handover_date": null, "canton": "Togoville", "FRI_canton": 0.12052462137294964, "control_score": null, "control_class": "Non évaluable (TdE)" }, "geometry": { "type": "Point", "coordinates": [ 1.518326933154162, 6.240244005855417 ] } },
{ "type": "Feature", "properties": { "region": "Maritime", "src": "TdE", "type": "Nsp", "name": "Nsp", "valid_coord": true, "project_status": null, "maintenance_plan": "<NA>", "handover_date": null, "canton": "Togoville", "FRI_canton": 0.12052462137294964, "control_score": null, "control_class": "Non évaluable (TdE)" }, "geometry": { "type": "Point", "coordinates": [ 1.475731666666667, 6.240231666666665 ] } },
{ "type": "Feature", "properties": { "region": "Maritime", "src": "TdE", "type": "Forage de Saint Jean de Dieu", "name": "Forage de Saint Jean de Dieu", "valid_coord": true, "project_status": null, "maintenance_plan": "<NA>", "handover_date": null, "canton": "Afagnangan", "FRI_canton": 0.28149439449223518, "control_score": null, "control_class": "Non évaluable (TdE)" }, "geometry": { "type": "Point", "coordinates": [ 1.630853333333333, 6.49491 ] } },
{ "type": "Feature", "properties": { "region": "Maritime", "src": "TdE", "type": "Forage du Château de Agbetiko", "name": "Forage du Château de Agbetiko", "valid_coord": true, "project_status": null, "maintenance_plan": "<NA>", "handover_date": null, "canton": "Agome-Glozou", "FRI_canton": 0.097773264397823578, "control_score": null, "control_class": "Non évaluable (TdE)" }, "geometry": { "type": "Point", "coordinates": [ 1.687986666666667, 6.496021666666665 ] } },
{ "type": "Feature", "properties": { "region": "Maritime", "src": "TdE", "type": "Nsp", "name": "Nsp", "valid_coord": true, "project_status": null, "maintenance_plan": "<NA>", "handover_date": null, "canton": "Dagbati", "FRI_canton": 0.087460178339828165, "control_score": null, "control_class": "Non évaluable (TdE)" }, "geometry": { "type": "Point", "coordinates": [ 1.492178333333332, 6.429775 ] } },
{ "type": "Feature", "properties": { "region": "Maritime", "src": "TdE", "type": "Nsp", "name": "Nsp", "valid_coord": true, "project_status": null, "maintenance_plan": "<NA>", "handover_date": null, "canton": "Dzrékpo", "FRI_canton": 0.090809521688921951, "control_score": null, "control_class": "Non évaluable (TdE)" }, "geometry": { "type": "Point", "coordinates": [ 1.566766666666666, 6.454429275512832 ] } },
{ "type": "Feature", "properties": { "region": "Maritime", "src": "TdE", "type": "Forage de Lankouvi", "name": "Forage de Lankouvi", "valid_coord": true, "project_status": null, "maintenance_plan": "<NA>", "handover_date": null, "canton": "Aflao-Sagbado", "FRI_canton": 0.53630702715745227, "control_score": null, "control_class": "Non évaluable (TdE)" }, "geometry": { "type": "Point", "coordinates": [ 1.126291666666666, 6.178793333333334 ] } },
{ "type": "Feature", "properties": { "region": "Maritime", "src": "TdE", "type": "Forage de Kleme", "name": "Forage de Kleme", "valid_coord": true, "project_status": null, "maintenance_plan": "<NA>", "handover_date": null, "canton": "Aflao-Sagbado", "FRI_canton": 0.53630702715745227, "control_score": null, "control_class": "Non évaluable (TdE)" }, "geometry": { "type": "Point", "coordinates": [ 1.111235, 6.212123333333333 ] } },
{ "type": "Feature", "properties": { "region": "Maritime", "src": "TdE", "type": "Forage de Aklakou", "name": "Forage de Aklakou", "valid_coord": true, "project_status": null, "maintenance_plan": "<NA>", "handover_date": null, "canton": "Aklakou", "FRI_canton": 0.12809816331714366, "control_score": null, "control_class": "Non évaluable (TdE)" }, "geometry": { "type": "Point", "coordinates": [ 1.706518333333334, 6.331805 ] } },
{ "type": "Feature", "properties": { "region": "Maritime", "src": "TdE", "type": "Forage de Attoeta", "name": "Forage de Attoeta", "valid_coord": true, "project_status": null, "maintenance_plan": "<NA>", "handover_date": null, "canton": "Fiata", "FRI_canton": 0.083854052177165045, "control_score": null, "control_class": "Non évaluable (TdE)" }, "geometry": { "type": "Point", "coordinates": [ 1.663408333333333, 6.301435 ] } },
{ "type": "Feature", "properties": { "region": "Maritime", "src": "TdE", "type": "Forage de Fiata", "name": "Forage de Fiata", "valid_coord": true, "project_status": null, "maintenance_plan": "<NA>", "handover_date": null, "canton": "Ganavé", "FRI_canton": 0.078835435878357354, "control_score": null, "control_class": "Non évaluable (TdE)" }, "geometry": { "type": "Point", "coordinates": [ 1.634243333333333, 6.327195 ] } },
{ "type": "Feature", "properties": { "region": "Maritime", "src": "TdE", "type": "Forage", "name": "Forage", "valid_coord": true, "project_status": null, "maintenance_plan": "<NA>", "handover_date": null, "canton": "Dalavé", "FRI_canton": 0.21194754158122667, "control_score": null, "control_class": "Non évaluable (TdE)" }, "geometry": { "type": "Point", "coordinates": [ 1.23862, 6.364176666666665 ] } },
{ "type": "Feature", "properties": { "region": "Maritime", "src": "TdE", "type": "Forage", "name": "Forage", "valid_coord": true, "project_status": null, "maintenance_plan": "<NA>", "handover_date": null, "canton": "Dalavé", "FRI_canton": 0.21194754158122667, "control_score": null, "control_class": "Non évaluable (TdE)" }, "geometry": { "type": "Point", "coordinates": [ 1.259591666666667, 6.378316666666664 ] } },
{ "type": "Feature", "properties": { "region": "Maritime", "src": "TdE", "type": "Forage", "name": "Forage", "valid_coord": true, "project_status": null, "maintenance_plan": "<NA>", "handover_date": null, "canton": "Gbatopé", "FRI_canton": 0.09163910686267604, "control_score": null, "control_class": "Non évaluable (TdE)" }, "geometry": { "type": "Point", "coordinates": [ 1.306855, 6.406038333333333 ] } },
{ "type": "Feature", "properties": { "region": "Maritime", "src": "TdE", "type": "Forage", "name": "Forage", "valid_coord": true, "project_status": null, "maintenance_plan": "<NA>", "handover_date": null, "canton": "Gbatopé", "FRI_canton": 0.09163910686267604, "control_score": null, "control_class": "Non évaluable (TdE)" }, "geometry": { "type": "Point", "coordinates": [ 1.310488333333333, 6.424141666666665 ] } },
{ "type": "Feature", "properties": { "region": "Maritime", "src": "TdE", "type": "Forage", "name": "Forage", "valid_coord": true, "project_status": null, "maintenance_plan": "<NA>", "handover_date": null, "canton": "Gbatopé", "FRI_canton": 0.09163910686267604, "control_score": null, "control_class": "Non évaluable (TdE)" }, "geometry": { "type": "Point", "coordinates": [ 1.302305, 6.41805 ] } },
{ "type": "Feature", "properties": { "region": "Maritime", "src": "TdE", "type": "Forage", "name": "Forage", "valid_coord": true, "project_status": null, "maintenance_plan": "<NA>", "handover_date": null, "canton": "Gbatopé", "FRI_canton": 0.09163910686267604, "control_score": null, "control_class": "Non évaluable (TdE)" }, "geometry": { "type": "Point", "coordinates": [ 1.310605, 6.42417 ] } },
{ "type": "Feature", "properties": { "region": "Maritime", "src": "TdE", "type": "Forage", "name": "Forage", "valid_coord": true, "project_status": null, "maintenance_plan": "<NA>", "handover_date": null, "canton": "Gbatopé", "FRI_canton": 0.09163910686267604, "control_score": null, "control_class": "Non évaluable (TdE)" }, "geometry": { "type": "Point", "coordinates": [ 1.310506666666667, 6.424131666666667 ] } },
{ "type": "Feature", "properties": { "region": "Maritime", "src": "TdE", "type": "Forage", "name": "Forage", "valid_coord": true, "project_status": null, "maintenance_plan": "<NA>", "handover_date": null, "canton": "Gbatopé", "FRI_canton": 0.09163910686267604, "control_score": null, "control_class": "Non évaluable (TdE)" }, "geometry": { "type": "Point", "coordinates": [ 1.293403333333334, 6.40355 ] } },
{ "type": "Feature", "properties": { "region": "Centrale", "src": "TdE", "type": "Larini", "name": "Larini", "valid_coord": true, "project_status": null, "maintenance_plan": "<NA>", "handover_date": null, "canton": "Tchamba", "FRI_canton": 0.24088822022045711, "control_score": null, "control_class": "Non évaluable (TdE)" }, "geometry": { "type": "Point", "coordinates": [ 1.410941666666667, 9.033538333333333 ] } },
{ "type": "Feature", "properties": { "region": "Maritime", "src": "TdE", "type": "Forage de Kpeme", "name": "Forage de Kpeme", "valid_coord": true, "project_status": null, "maintenance_plan": "<NA>", "handover_date": null, "canton": "Agbodrafo", "FRI_canton": 0.49207349082298196, "control_score": null, "control_class": "Non évaluable (TdE)" }, "geometry": { "type": "Point", "coordinates": [ 1.51378, 6.223778333333332 ] } },
{ "type": "Feature", "properties": { "region": "Plateaux", "src": "TdE", "type": "Forage de Château d'Eau", "name": "Forage de Château d'Eau", "valid_coord": true, "project_status": null, "maintenance_plan": "<NA>", "handover_date": null, "canton": "Wahala", "FRI_canton": 0.16539548574364726, "control_score": null, "control_class": "Non évaluable (TdE)" }, "geometry": { "type": "Point", "coordinates": [ 1.165571666666667, 7.178566666666669 ] } },
{ "type": "Feature", "properties": { "region": "Centrale", "src": "COSO", "type": "Infrastructure", "name": "ALEGBA", "valid_coord": true, "project_status": "Réception définitive", "maintenance_plan": "True", "handover_date": "2025-05-09", "canton": "Balanka", "FRI_canton": 0.087768623477421356, "control_score": 7.5, "control_class": "Risque indicatif faible" }, "geometry": { "type": "Point", "coordinates": [ 1.606965, 8.824055 ] } },
{ "type": "Feature", "properties": { "region": "Centrale", "src": "COSO", "type": "Subproject", "name": "ATONTOMI", "valid_coord": true, "project_status": "Réception définitive", "maintenance_plan": "True", "handover_date": "2025-04-30", "canton": "Koussountou", "FRI_canton": 0.080746948996841927, "control_score": 7.5, "control_class": "Risque indicatif faible" }, "geometry": { "type": "Point", "coordinates": [ 1.577222, 8.888017 ] } },
{ "type": "Feature", "properties": { "region": "Centrale", "src": "COSO", "type": "Subproject", "name": "BELAGNI", "valid_coord": true, "project_status": "Réception provisoire", "maintenance_plan": "False", "handover_date": null, "canton": "Tchamba", "FRI_canton": 0.24088822022045711, "control_score": 100.0, "control_class": "Priorité de contrôle" }, "geometry": { "type": "Point", "coordinates": [ 1.614907, 8.918368 ] } },
{ "type": "Feature", "properties": { "region": "Centrale", "src": "COSO", "type": "Infrastructure", "name": "AGBANSIKITI", "valid_coord": true, "project_status": "Réception définitive", "maintenance_plan": "False", "handover_date": "2025-04-30", "canton": "Kaboli", "FRI_canton": 0.093166634759030392, "control_score": 52.5, "control_class": "À vérifier" }, "geometry": { "type": "Point", "coordinates": [ 1.619747, 8.691495 ] } },
{ "type": "Feature", "properties": { "region": "Centrale", "src": "COSO", "type": "Subproject", "name": "ATAFA 2", "valid_coord": true, "project_status": "Réception provisoire", "maintenance_plan": "True", "handover_date": null, "canton": "Kaboli", "FRI_canton": 0.093166634759030392, "control_score": 47.5, "control_class": "À vérifier" }, "geometry": { "type": "Point", "coordinates": [ 1.563569, 8.694493 ] } },
{ "type": "Feature", "properties": { "region": "Centrale", "src": "COSO", "type": "Infrastructure", "name": "BOLEA", "valid_coord": true, "project_status": "Réception définitive", "maintenance_plan": "False", "handover_date": "2025-08-27", "canton": "Kaboli", "FRI_canton": 0.093166634759030392, "control_score": 52.5, "control_class": "À vérifier" }, "geometry": { "type": "Point", "coordinates": [ 1.612648, 8.528625 ] } },
{ "type": "Feature", "properties": { "region": "Centrale", "src": "COSO", "type": "Subproject", "name": "KALA 2", "valid_coord": true, "project_status": "Réception provisoire", "maintenance_plan": "True", "handover_date": "2024-11-13", "canton": "Kaboli", "FRI_canton": 0.093166634759030392, "control_score": 32.5, "control_class": "Risque indicatif faible" }, "geometry": { "type": "Point", "coordinates": [ 1.604208, 8.673588 ] } },
{ "type": "Feature", "properties": { "region": "Centrale", "src": "COSO", "type": "Subproject", "name": "ODORIN", "valid_coord": true, "project_status": "Réception définitive", "maintenance_plan": "True", "handover_date": "2025-05-08", "canton": "Kaboli", "FRI_canton": 0.093166634759030392, "control_score": 7.5, "control_class": "Risque indicatif faible" }, "geometry": { "type": "Point", "coordinates": [ 1.616948, 8.594615 ] } },
{ "type": "Feature", "properties": { "region": "Centrale", "src": "COSO", "type": "Infrastructure", "name": "SOLIMBIA", "valid_coord": true, "project_status": "Réception définitive", "maintenance_plan": "False", "handover_date": "2025-04-30", "canton": "Kaboli", "FRI_canton": 0.093166634759030392, "control_score": 52.5, "control_class": "À vérifier" }, "geometry": { "type": "Point", "coordinates": [ 1.617617, 8.764615 ] } },
{ "type": "Feature", "properties": { "region": "Kara", "src": "COSO", "type": "Infrastructure", "name": "ASSERE", "valid_coord": true, "project_status": "Réception définitive", "maintenance_plan": "True", "handover_date": "2025-02-10", "canton": "Pagouda", "FRI_canton": 0.082758790460777054, "control_score": 7.5, "control_class": "Risque indicatif faible" }, "geometry": { "type": "Point", "coordinates": [ 1.298193, 9.799855 ] } },
{ "type": "Feature", "properties": { "region": "Kara", "src": "COSO", "type": "Infrastructure", "name": "KAGNISSI", "valid_coord": true, "project_status": "Réception définitive", "maintenance_plan": "True", "handover_date": "2025-05-27", "canton": "Pagouda", "FRI_canton": 0.082758790460777054, "control_score": 7.5, "control_class": "Risque indicatif faible" }, "geometry": { "type": "Point", "coordinates": [ 1.3124717, 9.7638567 ] } },
{ "type": "Feature", "properties": { "region": "Kara", "src": "COSO", "type": "Infrastructure", "name": "KAWA", "valid_coord": true, "project_status": "Réception définitive", "maintenance_plan": "True", "handover_date": "2025-02-10", "canton": "Pagouda", "FRI_canton": 0.082758790460777054, "control_score": 7.5, "control_class": "Risque indicatif faible" }, "geometry": { "type": "Point", "coordinates": [ 1.3079933, 9.73982 ] } },
{ "type": "Feature", "properties": { "region": "Kara", "src": "COSO", "type": "Infrastructure", "name": "KPANAHORE", "valid_coord": true, "project_status": "Réception définitive", "maintenance_plan": "True", "handover_date": "2025-02-10", "canton": "Pagouda", "FRI_canton": 0.082758790460777054, "control_score": 7.5, "control_class": "Risque indicatif faible" }, "geometry": { "type": "Point", "coordinates": [ 1.331408, 9.75361 ] } },
{ "type": "Feature", "properties": { "region": "Kara", "src": "COSO", "type": "Infrastructure", "name": "SOMSIA", "valid_coord": true, "project_status": "Réception définitive", "maintenance_plan": "True", "handover_date": "2025-02-10", "canton": "Pagouda", "FRI_canton": 0.082758790460777054, "control_score": 7.5, "control_class": "Risque indicatif faible" }, "geometry": { "type": "Point", "coordinates": [ 1.3185617, 9.7106983 ] } },
{ "type": "Feature", "properties": { "region": "Kara", "src": "COSO", "type": "Infrastructure", "name": "WAZE", "valid_coord": true, "project_status": "Réception définitive", "maintenance_plan": "True", "handover_date": "2025-06-04", "canton": "Pagouda", "FRI_canton": 0.082758790460777054, "control_score": 7.5, "control_class": "Risque indicatif faible" }, "geometry": { "type": "Point", "coordinates": [ 1.320824, 9.744758 ] } },
{ "type": "Feature", "properties": { "region": "Kara", "src": "COSO", "type": "Subproject", "name": "KADJANGA", "valid_coord": true, "project_status": "Réception définitive", "maintenance_plan": "True", "handover_date": "2025-02-10", "canton": "Pagouda", "FRI_canton": 0.082758790460777054, "control_score": 7.5, "control_class": "Risque indicatif faible" }, "geometry": { "type": "Point", "coordinates": [ 1.35165, 9.724313 ] } },
{ "type": "Feature", "properties": { "region": "Kara", "src": "COSO", "type": "Subproject", "name": "TERODA", "valid_coord": true, "project_status": "Réception définitive", "maintenance_plan": "True", "handover_date": "2025-02-10", "canton": "Kémérida", "FRI_canton": 0.063127761051146619, "control_score": 0.0, "control_class": "Risque indicatif faible" }, "geometry": { "type": "Point", "coordinates": [ 1.357624, 9.671325 ] } },
{ "type": "Feature", "properties": { "region": "Savanes", "src": "COSO", "type": "Subproject", "name": "NAPOGO", "valid_coord": true, "project_status": "Réception définitive", "maintenance_plan": "False", "handover_date": "2025-06-19", "canton": "Boadé", "FRI_canton": 0.19562829290221415, "control_score": 60.0, "control_class": "Priorité de contrôle" }, "geometry": { "type": "Point", "coordinates": [ -0.081831, 11.10989 ] } },
{ "type": "Feature", "properties": { "region": "Savanes", "src": "COSO", "type": "Subproject", "name": "SANDOGO", "valid_coord": true, "project_status": "Réception définitive", "maintenance_plan": "False", "handover_date": "2025-05-15", "canton": "Noaga", "FRI_canton": 0.054625803241745804, "control_score": 45.0, "control_class": "À vérifier" }, "geometry": { "type": "Point", "coordinates": [ -0.067271, 11.099809 ] } },
{ "type": "Feature", "properties": { "region": "Savanes", "src": "COSO", "type": "Subproject", "name": "WOURI-WOURI", "valid_coord": true, "project_status": "Réception définitive", "maintenance_plan": "False", "handover_date": "2025-05-21", "canton": "Boadé", "FRI_canton": 0.19562829290221415, "control_score": 60.0, "control_class": "Priorité de contrôle" }, "geometry": { "type": "Point", "coordinates": [ -0.03386, 11.116633 ] } },
{ "type": "Feature", "properties": { "region": "Savanes", "src": "COSO", "type": "Subproject", "name": "ZAMISSI", "valid_coord": true, "project_status": "Réception définitive", "maintenance_plan": "False", "handover_date": "2025-05-15", "canton": "Noaga", "FRI_canton": 0.054625803241745804, "control_score": 45.0, "control_class": "À vérifier" }, "geometry": { "type": "Point", "coordinates": [ -0.066757, 11.089657 ] } },
{ "type": "Feature", "properties": { "region": "Savanes", "src": "COSO", "type": "Subproject", "name": "ZINTANGO", "valid_coord": true, "project_status": "Réception définitive", "maintenance_plan": "False", "handover_date": "2025-04-10", "canton": "Boadé", "FRI_canton": 0.19562829290221415, "control_score": 60.0, "control_class": "Priorité de contrôle" }, "geometry": { "type": "Point", "coordinates": [ -0.08592, 11.125808 ] } },
{ "type": "Feature", "properties": { "region": "Savanes", "src": "COSO", "type": "Subproject", "name": "BARGOUNDE", "valid_coord": true, "project_status": "Réception définitive", "maintenance_plan": "False", "handover_date": "2025-02-07", "canton": "Boadé", "FRI_canton": 0.19562829290221415, "control_score": 60.0, "control_class": "Priorité de contrôle" }, "geometry": { "type": "Point", "coordinates": [ 0.015431, 11.081848 ] } },
{ "type": "Feature", "properties": { "region": "Savanes", "src": "COSO", "type": "Subproject", "name": "KODAGO", "valid_coord": true, "project_status": "Réception définitive", "maintenance_plan": "True", "handover_date": "2025-03-26", "canton": "Boadé", "FRI_canton": 0.19562829290221415, "control_score": 15.0, "control_class": "Risque indicatif faible" }, "geometry": { "type": "Point", "coordinates": [ 0.042313, 11.10398 ] } },
{ "type": "Feature", "properties": { "region": "Savanes", "src": "COSO", "type": "Subproject", "name": "SAYODE", "valid_coord": true, "project_status": "Réception définitive", "maintenance_plan": "False", "handover_date": "2025-02-07", "canton": "Boadé", "FRI_canton": 0.19562829290221415, "control_score": 60.0, "control_class": "Priorité de contrôle" }, "geometry": { "type": "Point", "coordinates": [ 0.019593, 11.07053 ] } },
{ "type": "Feature", "properties": { "region": "Savanes", "src": "COSO", "type": "Subproject", "name": "TIMANGA (CINKASSE)", "valid_coord": true, "project_status": "Réception définitive", "maintenance_plan": "True", "handover_date": "2025-02-06", "canton": "Boadé", "FRI_canton": 0.19562829290221415, "control_score": 15.0, "control_class": "Risque indicatif faible" }, "geometry": { "type": "Point", "coordinates": [ 0.031963, 11.083669 ] } },
{ "type": "Feature", "properties": { "region": "Savanes", "src": "COSO", "type": "Subproject", "name": "YIEGOU (CINKASSE)", "valid_coord": true, "project_status": "Réception définitive", "maintenance_plan": "False", "handover_date": "2025-03-25", "canton": "Boadé", "FRI_canton": 0.19562829290221415, "control_score": 60.0, "control_class": "Priorité de contrôle" }, "geometry": { "type": "Point", "coordinates": [ 0.036734, 11.098188 ] } },
{ "type": "Feature", "properties": { "region": "Savanes", "src": "COSO", "type": "Subproject", "name": "BINGOULA", "valid_coord": true, "project_status": "Réception définitive", "maintenance_plan": "False", "handover_date": "2024-08-22", "canton": "Boadé", "FRI_canton": 0.19562829290221415, "control_score": 60.0, "control_class": "Priorité de contrôle" }, "geometry": { "type": "Point", "coordinates": [ -0.081247, 11.1176724 ] } },
{ "type": "Feature", "properties": { "region": "Savanes", "src": "COSO", "type": "Infrastructure", "name": "GNOAGA CENTRE", "valid_coord": true, "project_status": "Réception définitive", "maintenance_plan": "False", "handover_date": "2025-12-03", "canton": "Boadé", "FRI_canton": 0.19562829290221415, "control_score": 60.0, "control_class": "Priorité de contrôle" }, "geometry": { "type": "Point", "coordinates": [ -0.103617, 11.105457 ] } },
{ "type": "Feature", "properties": { "region": "Savanes", "src": "COSO", "type": "Subproject", "name": "YOUMAKOU", "valid_coord": true, "project_status": "Réception définitive", "maintenance_plan": "False", "handover_date": "2024-08-22", "canton": "Noaga", "FRI_canton": 0.054625803241745804, "control_score": 45.0, "control_class": "À vérifier" }, "geometry": { "type": "Point", "coordinates": [ -0.10443, 11.099301 ] } },
{ "type": "Feature", "properties": { "region": "Savanes", "src": "COSO", "type": "Infrastructure", "name": "KOULTAMSÉ", "valid_coord": true, "project_status": "Réception définitive", "maintenance_plan": "False", "handover_date": "2025-05-16", "canton": "Gouloungoussi", "FRI_canton": 0.061523537324690319, "control_score": 45.0, "control_class": "À vérifier" }, "geometry": { "type": "Point", "coordinates": [ -0.110754, 11.125092 ] } },
{ "type": "Feature", "properties": { "region": "Savanes", "src": "COSO", "type": "Subproject", "name": "SINOGO", "valid_coord": true, "project_status": "Réception définitive", "maintenance_plan": "False", "handover_date": "2025-05-16", "canton": "Gouloungoussi", "FRI_canton": 0.061523537324690319, "control_score": 45.0, "control_class": "À vérifier" }, "geometry": { "type": "Point", "coordinates": [ -0.110754, 11.125092 ] } },
{ "type": "Feature", "properties": { "region": "Savanes", "src": "COSO", "type": "Subproject", "name": "TENNOGO", "valid_coord": true, "project_status": "Réception définitive", "maintenance_plan": "True", "handover_date": "2025-12-03", "canton": "Gouloungoussi", "FRI_canton": 0.061523537324690319, "control_score": 0.0, "control_class": "Risque indicatif faible" }, "geometry": { "type": "Point", "coordinates": [ -0.112391, 11.106438 ] } },
{ "type": "Feature", "properties": { "region": "Savanes", "src": "COSO", "type": "Subproject", "name": "ZOUBEKO", "valid_coord": true, "project_status": "Réception provisoire", "maintenance_plan": "False", "handover_date": null, "canton": "Gouloungoussi", "FRI_canton": 0.061523537324690319, "control_score": 85.0, "control_class": "Priorité de contrôle" }, "geometry": { "type": "Point", "coordinates": [ -0.127504, 11.110269 ] } },
{ "type": "Feature", "properties": { "region": "Savanes", "src": "COSO", "type": "Subproject", "name": "DATOULONTE (TIMBOU)", "valid_coord": true, "project_status": "Réception définitive", "maintenance_plan": "False", "handover_date": "2025-04-17", "canton": "Timbou", "FRI_canton": 0.083349835858232316, "control_score": 52.5, "control_class": "À vérifier" }, "geometry": { "type": "Point", "coordinates": [ 0.141467, 10.989956 ] } },
{ "type": "Feature", "properties": { "region": "Savanes", "src": "COSO", "type": "Subproject", "name": "NAMBUITITE TIMBOU", "valid_coord": true, "project_status": "Réception définitive", "maintenance_plan": "False", "handover_date": "2025-03-20", "canton": "Biankouri", "FRI_canton": 0.07192656944218638, "control_score": 52.5, "control_class": "À vérifier" }, "geometry": { "type": "Point", "coordinates": [ 0.070502, 11.033372 ] } },
{ "type": "Feature", "properties": { "region": "Savanes", "src": "COSO", "type": "Infrastructure", "name": "TOMONLE", "valid_coord": true, "project_status": "Réception provisoire", "maintenance_plan": "False", "handover_date": null, "canton": "Koundjoaré", "FRI_canton": 0.10923738545553606, "control_score": 92.5, "control_class": "Priorité de contrôle" }, "geometry": { "type": "Point", "coordinates": [ 0.669152, 10.884821 ] } },
{ "type": "Feature", "properties": { "region": "Savanes", "src": "COSO", "type": "Infrastructure", "name": "MANDOURI CENTRE", "valid_coord": true, "project_status": "Réception définitive", "maintenance_plan": "False", "handover_date": "2025-08-28", "canton": "Mandouri", "FRI_canton": 0.19156734783243143, "control_score": 60.0, "control_class": "Priorité de contrôle" }, "geometry": { "type": "Point", "coordinates": [ 0.817863, 10.846096 ] } },
{ "type": "Feature", "properties": { "region": "Savanes", "src": "COSO", "type": "Infrastructure", "name": "NALI ANGOH", "valid_coord": true, "project_status": "Réception provisoire", "maintenance_plan": "True", "handover_date": "2025-01-15", "canton": "Nali", "FRI_canton": 0.078650170030093697, "control_score": 32.5, "control_class": "Risque indicatif faible" }, "geometry": { "type": "Point", "coordinates": [ 0.4536523, 10.0454774 ] } },
{ "type": "Feature", "properties": { "region": "Savanes", "src": "COSO", "type": "Subproject", "name": "KARKOU", "valid_coord": true, "project_status": "Réception provisoire", "maintenance_plan": "True", "handover_date": "2025-01-22", "canton": "Tchamonga", "FRI_canton": 0.16303100343295712, "control_score": 40.0, "control_class": "À vérifier" }, "geometry": { "type": "Point", "coordinates": [ 0.7693367, 10.48327 ] } },
{ "type": "Feature", "properties": { "region": "Savanes", "src": "COSO", "type": "Subproject", "name": "IBASSANDJA", "valid_coord": true, "project_status": "Réception provisoire", "maintenance_plan": "True", "handover_date": "2025-01-22", "canton": "Tchamonga", "FRI_canton": 0.16303100343295712, "control_score": 40.0, "control_class": "À vérifier" }, "geometry": { "type": "Point", "coordinates": [ 0.7485683, 10.4859533 ] } },
{ "type": "Feature", "properties": { "region": "Savanes", "src": "COSO", "type": "Infrastructure", "name": "SIBIOGUE", "valid_coord": true, "project_status": "Réception définitive", "maintenance_plan": "False", "handover_date": "2025-09-25", "canton": "Sissiak", "FRI_canton": 0.086809705656272843, "control_score": 52.5, "control_class": "À vérifier" }, "geometry": { "type": "Point", "coordinates": [ 0.091253, 10.771387 ] } },
{ "type": "Feature", "properties": { "region": "Savanes", "src": "COSO", "type": "Infrastructure", "name": "KPINKPARBAGOU 1", "valid_coord": true, "project_status": "Réception définitive", "maintenance_plan": "True", "handover_date": "2026-01-29", "canton": "Tampialime", "FRI_canton": 0.071813304834614677, "control_score": 7.5, "control_class": "Risque indicatif faible" }, "geometry": { "type": "Point", "coordinates": [ -0.035277, 10.76495 ] } },
{ "type": "Feature", "properties": { "region": "Savanes", "src": "COSO", "type": "Subproject", "name": "KOULMATIK-MIRE", "valid_coord": true, "project_status": "Réception provisoire", "maintenance_plan": "False", "handover_date": null, "canton": "Lotogou", "FRI_canton": 0.080649294003066835, "control_score": 92.5, "control_class": "Priorité de contrôle" }, "geometry": { "type": "Point", "coordinates": [ 0.052255, 10.77684 ] } },
{ "type": "Feature", "properties": { "region": "Savanes", "src": "COSO", "type": "Subproject", "name": "KPINKPARBAGOU 2", "valid_coord": true, "project_status": "Réception définitive", "maintenance_plan": "True", "handover_date": "2025-09-26", "canton": "Tampialime", "FRI_canton": 0.071813304834614677, "control_score": 7.5, "control_class": "Risque indicatif faible" }, "geometry": { "type": "Point", "coordinates": [ -0.0154217, 10.7588133 ] } },
{ "type": "Feature", "properties": { "region": "Savanes", "src": "COSO", "type": "Subproject", "name": "PIABRIBAGOU", "valid_coord": true, "project_status": "Réception définitive", "maintenance_plan": "False", "handover_date": "2025-12-23", "canton": "Sissiak", "FRI_canton": 0.086809705656272843, "control_score": 52.5, "control_class": "À vérifier" }, "geometry": { "type": "Point", "coordinates": [ 0.127192, 10.780718 ] } },
{ "type": "Feature", "properties": { "region": "Savanes", "src": "COSO", "type": "Subproject", "name": "NALONGUE 1", "valid_coord": true, "project_status": "Réception définitive", "maintenance_plan": "True", "handover_date": "2025-09-25", "canton": "Tampialime", "FRI_canton": 0.071813304834614677, "control_score": 7.5, "control_class": "Risque indicatif faible" }, "geometry": { "type": "Point", "coordinates": [ -0.0069233, 10.7307983 ] } },
{ "type": "Feature", "properties": { "region": "Savanes", "src": "COSO", "type": "Infrastructure", "name": "MAGNA", "valid_coord": true, "project_status": "Réception provisoire", "maintenance_plan": "False", "handover_date": null, "canton": "Mango", "FRI_canton": 0.14859365224220841, "control_score": 100.0, "control_class": "Priorité de contrôle" }, "geometry": { "type": "Point", "coordinates": [ 0.4571656, 10.3384158 ] } },
{ "type": "Feature", "properties": { "region": "Savanes", "src": "COSO", "type": "Infrastructure", "name": "FOMBORO", "valid_coord": true, "project_status": "Réception provisoire", "maintenance_plan": "False", "handover_date": null, "canton": "Mango", "FRI_canton": 0.14859365224220841, "control_score": 100.0, "control_class": "Priorité de contrôle" }, "geometry": { "type": "Point", "coordinates": [ 0.4777628, 10.3531358 ] } },
{ "type": "Feature", "properties": { "region": "Savanes", "src": "COSO", "type": "Infrastructure", "name": "DOUANE-EST", "valid_coord": true, "project_status": "Réception provisoire", "maintenance_plan": "False", "handover_date": null, "canton": "Mango", "FRI_canton": 0.14859365224220841, "control_score": 100.0, "control_class": "Priorité de contrôle" }, "geometry": { "type": "Point", "coordinates": [ 0.4729033, 10.3392083 ] } },
{ "type": "Feature", "properties": { "region": "Savanes", "src": "COSO", "type": "Infrastructure", "name": "DJABOU", "valid_coord": true, "project_status": "Réception provisoire", "maintenance_plan": "False", "handover_date": null, "canton": "Mango", "FRI_canton": 0.14859365224220841, "control_score": 100.0, "control_class": "Priorité de contrôle" }, "geometry": { "type": "Point", "coordinates": [ 0.4783607, 10.3644199 ] } },
{ "type": "Feature", "properties": { "region": "Savanes", "src": "COSO", "type": "Infrastructure", "name": "GNANGBANDI (MANGO)", "valid_coord": true, "project_status": "Réception provisoire", "maintenance_plan": "False", "handover_date": null, "canton": "Mango", "FRI_canton": 0.14859365224220841, "control_score": 100.0, "control_class": "Priorité de contrôle" }, "geometry": { "type": "Point", "coordinates": [ 0.43644, 10.32394 ] } },
{ "type": "Feature", "properties": { "region": "Savanes", "src": "COSO", "type": "Infrastructure", "name": "GNABADJOUANI 2", "valid_coord": true, "project_status": "Réception provisoire", "maintenance_plan": "True", "handover_date": null, "canton": "Naki-Ouest", "FRI_canton": 0.1395996130609366, "control_score": 55.0, "control_class": "À vérifier" }, "geometry": { "type": "Point", "coordinates": [ 0.13158, 10.966555 ] } },
{ "type": "Feature", "properties": { "region": "Savanes", "src": "COSO", "type": "Subproject", "name": "YOBRE 1", "valid_coord": true, "project_status": "Réception définitive", "maintenance_plan": "True", "handover_date": "2025-09-23", "canton": "Naki-Ouest", "FRI_canton": 0.1395996130609366, "control_score": 15.0, "control_class": "Risque indicatif faible" }, "geometry": { "type": "Point", "coordinates": [ 0.094391, 10.938128 ] } },
{ "type": "Feature", "properties": { "region": "Savanes", "src": "COSO", "type": "Subproject", "name": "DJIRIDJO", "valid_coord": true, "project_status": "Réception provisoire", "maintenance_plan": "False", "handover_date": null, "canton": "Takpamba", "FRI_canton": 0.12152908397245658, "control_score": 92.5, "control_class": "Priorité de contrôle" }, "geometry": { "type": "Point", "coordinates": [ 0.5215, 10.01441 ] } },
{ "type": "Feature", "properties": { "region": "Savanes", "src": "COSO", "type": "Subproject", "name": "SAPOLI", "valid_coord": true, "project_status": "Réception provisoire", "maintenance_plan": "False", "handover_date": null, "canton": "Naompoch", "FRI_canton": 0.11413936699690165, "control_score": 92.5, "control_class": "Priorité de contrôle" }, "geometry": { "type": "Point", "coordinates": [ 0.704147, 9.844028 ] } },
{ "type": "Feature", "properties": { "region": "Savanes", "src": "COSO", "type": "Subproject", "name": "LENIDO", "valid_coord": true, "project_status": "Réception définitive", "maintenance_plan": "False", "handover_date": "2025-10-07", "canton": "Takpamba", "FRI_canton": 0.12152908397245658, "control_score": 52.5, "control_class": "À vérifier" }, "geometry": { "type": "Point", "coordinates": [ 0.5972867, 9.946635 ] } },
{ "type": "Feature", "properties": { "region": "Savanes", "src": "COSO", "type": "Subproject", "name": "SAMBROUGUE", "valid_coord": true, "project_status": "Achevé", "maintenance_plan": "False", "handover_date": null, "canton": "Tami", "FRI_canton": 0.089711122593925469, "control_score": 67.5, "control_class": "Priorité de contrôle" }, "geometry": { "type": "Point", "coordinates": [ -0.005415, 10.9115583 ] } },
{ "type": "Feature", "properties": { "region": "Savanes", "src": "COSO", "type": "Subproject", "name": "POAMONGUE", "valid_coord": true, "project_status": "Réception provisoire", "maintenance_plan": "False", "handover_date": null, "canton": "Tami", "FRI_canton": 0.089711122593925469, "control_score": 92.5, "control_class": "Priorité de contrôle" }, "geometry": { "type": "Point", "coordinates": [ 0.063415, 10.853297 ] } },
{ "type": "Feature", "properties": { "region": "Savanes", "src": "COSO", "type": "Infrastructure", "name": "LOTOGOU CENTRE", "valid_coord": true, "project_status": "Réception provisoire", "maintenance_plan": "False", "handover_date": null, "canton": "Lotogou", "FRI_canton": 0.080649294003066835, "control_score": 92.5, "control_class": "Priorité de contrôle" }, "geometry": { "type": "Point", "coordinates": [ 0.025296, 10.798171 ] } },
{ "type": "Feature", "properties": { "region": "Savanes", "src": "COSO", "type": "Subproject", "name": "MAGNA BAS", "valid_coord": true, "project_status": "Achevé", "maintenance_plan": "False", "handover_date": null, "canton": "Doukpergou", "FRI_canton": 0.066997608769567077, "control_score": 60.0, "control_class": "Priorité de contrôle" }, "geometry": { "type": "Point", "coordinates": [ 0.0908567, 10.6417033 ] } },
{ "type": "Feature", "properties": { "region": "Savanes", "src": "COSO", "type": "Subproject", "name": "KPATCHIANGBANE 1", "valid_coord": true, "project_status": "Réception provisoire", "maintenance_plan": "False", "handover_date": null, "canton": "Naki-Ouest", "FRI_canton": 0.1395996130609366, "control_score": 100.0, "control_class": "Priorité de contrôle" }, "geometry": { "type": "Point", "coordinates": [ -0.0034733, 10.9534483 ] } },
{ "type": "Feature", "properties": { "region": "Savanes", "src": "COSO", "type": "Subproject", "name": "BASSOUDOUGOU", "valid_coord": true, "project_status": "Réception provisoire", "maintenance_plan": "False", "handover_date": null, "canton": "Naki-Ouest", "FRI_canton": 0.1395996130609366, "control_score": 100.0, "control_class": "Priorité de contrôle" }, "geometry": { "type": "Point", "coordinates": [ 0.0246017, 10.9422383 ] } },
{ "type": "Feature", "properties": { "region": "Savanes", "src": "COSO", "type": "Subproject", "name": "NAKORGOU", "valid_coord": true, "project_status": "Réception provisoire", "maintenance_plan": "False", "handover_date": null, "canton": "Naki-Ouest", "FRI_canton": 0.1395996130609366, "control_score": 100.0, "control_class": "Priorité de contrôle" }, "geometry": { "type": "Point", "coordinates": [ 0.068247, 10.933573 ] } },
{ "type": "Feature", "properties": { "region": "Savanes", "src": "COSO", "type": "Subproject", "name": "KARIATA", "valid_coord": true, "project_status": "Réception provisoire", "maintenance_plan": "False", "handover_date": null, "canton": "Naki-Ouest", "FRI_canton": 0.1395996130609366, "control_score": 100.0, "control_class": "Priorité de contrôle" }, "geometry": { "type": "Point", "coordinates": [ 0.061661, 10.893852 ] } },
{ "type": "Feature", "properties": { "region": "Savanes", "src": "COSO", "type": "Subproject", "name": "TCHANDANA", "valid_coord": true, "project_status": "Réception provisoire", "maintenance_plan": "False", "handover_date": null, "canton": "Naki-Ouest", "FRI_canton": 0.1395996130609366, "control_score": 100.0, "control_class": "Priorité de contrôle" }, "geometry": { "type": "Point", "coordinates": [ 0.11905, 10.934593 ] } },
{ "type": "Feature", "properties": { "region": "Savanes", "src": "COSO", "type": "Infrastructure", "name": "KEREKETE", "valid_coord": true, "project_status": "Réception provisoire", "maintenance_plan": "False", "handover_date": null, "canton": "Tamongue", "FRI_canton": 0.08099052721406387, "control_score": 92.5, "control_class": "Priorité de contrôle" }, "geometry": { "type": "Point", "coordinates": [ 0.2093732, 10.4833243 ] } },
{ "type": "Feature", "properties": { "region": "Savanes", "src": "COSO", "type": "Infrastructure", "name": "KPANDJINI", "valid_coord": true, "project_status": "Réception provisoire", "maintenance_plan": "False", "handover_date": null, "canton": "Galangashie", "FRI_canton": 0.15359817208843171, "control_score": 100.0, "control_class": "Priorité de contrôle" }, "geometry": { "type": "Point", "coordinates": [ 0.32996, 10.5348583 ] } },
{ "type": "Feature", "properties": { "region": "Savanes", "src": "COSO", "type": "Infrastructure", "name": "DJE-DJABOU", "valid_coord": true, "project_status": "Réception définitive", "maintenance_plan": "True", "handover_date": "2026-03-18", "canton": "Gando", "FRI_canton": 0.090156673021486375, "control_score": 7.5, "control_class": "Risque indicatif faible" }, "geometry": { "type": "Point", "coordinates": [ 0.7220782, 10.3179254 ] } },
{ "type": "Feature", "properties": { "region": "Savanes", "src": "COSO", "type": "Subproject", "name": "GBATENI", "valid_coord": true, "project_status": "Réception provisoire", "maintenance_plan": "False", "handover_date": null, "canton": "Gando", "FRI_canton": 0.090156673021486375, "control_score": 92.5, "control_class": "Priorité de contrôle" }, "geometry": { "type": "Point", "coordinates": [ 0.7433078, 10.2540124 ] } },
{ "type": "Feature", "properties": { "region": "Savanes", "src": "COSO", "type": "Subproject", "name": "NAKPATI", "valid_coord": true, "project_status": "Réception provisoire", "maintenance_plan": "False", "handover_date": null, "canton": "Gando", "FRI_canton": 0.090156673021486375, "control_score": 92.5, "control_class": "Priorité de contrôle" }, "geometry": { "type": "Point", "coordinates": [ 0.8183641, 10.3497677 ] } },
{ "type": "Feature", "properties": { "region": "Savanes", "src": "COSO", "type": "Infrastructure", "name": "TCHANKOUNKOUNKONG", "valid_coord": true, "project_status": "Achevé", "maintenance_plan": "False", "handover_date": null, "canton": "Nanergou", "FRI_canton": 0.080353858202831169, "control_score": 67.5, "control_class": "Priorité de contrôle" }, "geometry": { "type": "Point", "coordinates": [ 0.146811, 10.936937 ] } },
{ "type": "Feature", "properties": { "region": "Savanes", "src": "COSO", "type": "Infrastructure", "name": "TAMI-CENTRE", "valid_coord": true, "project_status": "Achevé", "maintenance_plan": "False", "handover_date": null, "canton": "Tami", "FRI_canton": 0.089711122593925469, "control_score": 67.5, "control_class": "Priorité de contrôle" }, "geometry": { "type": "Point", "coordinates": [ 0.040576, 10.858083 ] } },
{ "type": "Feature", "properties": { "region": "Savanes", "src": "COSO", "type": "Infrastructure", "name": "WARKAMBOU CENTRE 1", "valid_coord": true, "project_status": "Achevé", "maintenance_plan": "False", "handover_date": null, "canton": "Warkambou", "FRI_canton": 0.067537670070016639, "control_score": 60.0, "control_class": "Priorité de contrôle" }, "geometry": { "type": "Point", "coordinates": [ -0.013278, 10.804232 ] } },
{ "type": "Feature", "properties": { "region": "Savanes", "src": "COSO", "type": "Subproject", "name": "TAMBATE", "valid_coord": true, "project_status": "Réception provisoire", "maintenance_plan": "False", "handover_date": null, "canton": "Koundjoaré", "FRI_canton": 0.10923738545553606, "control_score": 92.5, "control_class": "Priorité de contrôle" }, "geometry": { "type": "Point", "coordinates": [ 0.64414, 10.935298 ] } },
{ "type": "Feature", "properties": { "region": "Savanes", "src": "COSO", "type": "Subproject", "name": "SANLOAGA", "valid_coord": true, "project_status": "Achevé", "maintenance_plan": "False", "handover_date": null, "canton": "Koundjoaré", "FRI_canton": 0.10923738545553606, "control_score": 67.5, "control_class": "Priorité de contrôle" }, "geometry": { "type": "Point", "coordinates": [ 0.786435, 10.968935 ] } },
{ "type": "Feature", "properties": { "region": "Savanes", "src": "COSO", "type": "Subproject", "name": "PATKONE TOMONG", "valid_coord": true, "project_status": "Réception provisoire", "maintenance_plan": "False", "handover_date": null, "canton": "Sangou", "FRI_canton": 0.041031115574160927, "control_score": 85.0, "control_class": "Priorité de contrôle" }, "geometry": { "type": "Point", "coordinates": [ 0.0393583, 10.6047967 ] } },
{ "type": "Feature", "properties": { "region": "Savanes", "src": "COSO", "type": "Subproject", "name": "NATCHARE", "valid_coord": true, "project_status": "Réception provisoire", "maintenance_plan": "False", "handover_date": null, "canton": "Tami", "FRI_canton": 0.089711122593925469, "control_score": 92.5, "control_class": "Priorité de contrôle" }, "geometry": { "type": "Point", "coordinates": [ 0.031187, 10.8657 ] } },
{ "type": "Feature", "properties": { "region": "Centrale", "src": "COSO", "type": "Infrastructure", "name": "KABOLI", "valid_coord": true, "project_status": "Réception provisoire", "maintenance_plan": "False", "handover_date": null, "canton": "Kaboli", "FRI_canton": 0.093166634759030392, "control_score": 92.5, "control_class": "Priorité de contrôle" }, "geometry": { "type": "Point", "coordinates": [ 1.575045, 8.746372 ] } },
{ "type": "Feature", "properties": { "region": "Savanes", "src": "COSO", "type": "Subproject", "name": "ZOLALE", "valid_coord": true, "project_status": "Réception provisoire", "maintenance_plan": "False", "handover_date": "2026-04-02", "canton": "Boadé", "FRI_canton": 0.19562829290221415, "control_score": 85.0, "control_class": "Priorité de contrôle" }, "geometry": { "type": "Point", "coordinates": [ 0.029553, 11.093908 ] } },
{ "type": "Feature", "properties": { "region": "Savanes", "src": "COSO", "type": "Subproject", "name": "NASSIKOU", "valid_coord": true, "project_status": "Réception technique", "maintenance_plan": "False", "handover_date": null, "canton": "Kountoire", "FRI_canton": 0.084017239235314053, "control_score": 92.5, "control_class": "Priorité de contrôle" }, "geometry": { "type": "Point", "coordinates": [ 0.729873, 10.165172 ] } },
{ "type": "Feature", "properties": { "region": "Savanes", "src": "COSO", "type": "Subproject", "name": "TIEPAH", "valid_coord": true, "project_status": "Réception technique", "maintenance_plan": "False", "handover_date": null, "canton": "Kountoire", "FRI_canton": 0.084017239235314053, "control_score": 92.5, "control_class": "Priorité de contrôle" }, "geometry": { "type": "Point", "coordinates": [ 0.612965, 10.178085 ] } },
{ "type": "Feature", "properties": { "region": "Savanes", "src": "COSO", "type": "Infrastructure", "name": "BAOULE", "valid_coord": true, "project_status": "Achevé", "maintenance_plan": "False", "handover_date": null, "canton": "Sagbiebou", "FRI_canton": 0.074502862905318296, "control_score": 67.5, "control_class": "Priorité de contrôle" }, "geometry": { "type": "Point", "coordinates": [ 0.578949, 10.263224 ] } }
]
}
